OTTER                   
1 62623U 25009Q   26068.72300813  .00012198  00000+0  45151-3 0  9990
2 62623  97.4065 151.3812 0003573 310.7710  49.3219 15.27809545 63722
STARLINK-36054          
1 66812U 25278X   26068.52482990  .00028860  00000+0  10530-2 0  9992
2 66812  43.0022 115.3149 0001475 293.8382  66.2315 15.27616009 15187
